[{"OBJECT_NAME":"TEVEL2-9","OBJECT_ID":"2025-052AD","EPOCH":"2026-03-09T16:51:18.321696","MEAN_MOTION":15.28633834,"ECCENTRICITY":0.000799,"INCLINATION":97.4057,"RA_OF_ASC_NODE":324.3929,"ARG_OF_PERICENTER":124.2475,"MEAN_ANOMALY":235.9522,"EPHEMERIS_TYPE":0,"CLASSIFICATION_TYPE":"U","NORAD_CAT_ID":63237,"ELEMENT_SET_NO":999,"REV_AT_EPOCH":5481,"BSTAR":0.00067240159,"MEAN_MOTION_DOT":0.00018694,"MEAN_MOTION_DDOT":0},{"OBJECT_NAME":"STARLINK-36495","OBJECT_ID":"2026-002G","EPOCH":"2026-03-09T23:13:33.742560","MEAN_MOTION":15.27629395,"ECCENTRICITY":4.737e-5,"INCLINATION":43.0015,"RA_OF_ASC_NODE":323.5054,"ARG_OF_PERICENTER":227.4963,"MEAN_ANOMALY":132.5849,"EPHEMERIS_TYPE":0,"CLASSIFICATION_TYPE":"U","NORAD_CAT_ID":67311,"ELEMENT_SET_NO":999,"REV_AT_EPOCH":1128,"BSTAR":0.0012184435,"MEAN_MOTION_DOT":0.0003347,"MEAN_MOTION_DDOT":0}]
